NORAD_CAT_ID,OBJECT_NAME,OBJECT_TYPE,EPOCH,MEAN_MOTION,ECCENTRICITY,INCLINATION,RA_OF_ASC_NODE,ARG_OF_PERICENTER,MEAN_ANOMALY,BSTAR,MEAN_MOTION_DOT,MEAN_MOTION_DDOT,TLE_LINE0,TLE_LINE1,TLE_LINE2,SEMIMAJOR_AXIS,PERIOD,APOGEE,PERIGEE,DECAYED
53004.0,STARLINK-4253,PAYLOAD,2024-08-15 11:45:54,15.08849984,0.0001217,53.2149,138.3377,96.713,263.4001,0.0003947,6.001e-05,0.0,0 STARLINK-4253,1 53004U 22076U   24228.49021761  .00006001  00000-0  39470-3 0  9990,2 53004  53.2149 138.3377 0001217  96.7130 263.4001 15.08849984116614,6917.85,95.437,540.557,538.873,0.0
53004.0,STARLINK-4253,PAYLOAD,2024-08-15 22:53:37,15.0884065,0.0001279,53.216,136.2551,109.0052,251.1079,0.00030762,4.611e-05,0.0,0 STARLINK-4253,1 53004U 22076U   24228.95390108  .00004611  00000-0  30762-3 0  9995,2 53004  53.2160 136.2551 0001279 109.0052 251.1079 15.08840650116684,6917.878,95.438,540.628,538.859,0.0
53004.0,STARLINK-4253,PAYLOAD,2024-08-16 00:29:00,15.08840058,0.0001105,53.2163,135.9597,102.8246,257.2869,0.00028212,4.205e-05,0.0,0 STARLINK-4253,1 53004U 22076U   24229.02014117  .00004205  00000-0  28212-3 0  9993,2 53004  53.2163 135.9597 0001105 102.8246 257.2869 15.08840058117167,6917.88,95.438,540.51,538.981,0.0
53004.0,STARLINK-4253,PAYLOAD,2024-08-17 03:30:31,15.08856956,0.0001424,53.2159,130.8998,114.1534,245.9607,-6.6117e-05,-1.341e-05,0.0,0 STARLINK-4253,1 53004U 22076U   24230.14620244 -.00001341  00000-0 -66117-4 0  9999,2 53004  53.2159 130.8998 0001424 114.1534 245.9607 15.08856956117338,6917.829,95.436,540.679,538.708,0.0
53004.0,STARLINK-4253,PAYLOAD,2024-08-17 17:49:01,15.088326,0.0001213,53.2165,128.2242,106.6638,253.4487,-2.2268e-06,-3.23e-06,0.0,0 STARLINK-4253,1 53004U 22076U   24230.74237535 -.00000323  00000-0 -22268-5 0  9991,2 53004  53.2165 128.2242 0001213 106.6638 253.4487 15.08832600117425,6917.903,95.438,540.607,538.929,0.0
53004.0,STARLINK-4253,PAYLOAD,2024-08-18 00:10:33,15.08839651,0.0001353,53.2161,127.0346,107.3605,252.7535,8.5975e-05,1.081e-05,0.0,0 STARLINK-4253,1 53004U 22076U   24231.00733303  .00001081  00000-0  85975-4 0  9998,2 53004  53.2161 127.0346 0001353 107.3605 252.7535 15.08839651117463,6917.881,95.438,540.682,538.81,0.0
53004.0,STARLINK-4253,PAYLOAD,2024-08-18 22:25:56,15.08854609,0.0001261,53.2162,122.8715,101.1156,258.9978,-0.00023614,-4.046e-05,0.0,0 STARLINK-4253,1 53004U 22076U   24231.93468642 -.00004046  00000-0 -23614-3 0  9998,2 53004  53.2162 122.8715 0001261 101.1156 258.9978 15.08854609117131,6917.836,95.437,540.573,538.828,0.0
53004.0,STARLINK-4253,PAYLOAD,2024-08-19 09:33:39,15.08844128,0.0001213,53.2161,120.7914,88.2134,271.8997,0.00014139,1.963e-05,0.0,0 STARLINK-4253,1 53004U 22076U   24232.39837118  .00001963  00000-0  14139-3 0  9992,2 53004  53.2161 120.7914 0001213  88.2134 271.8997 15.08844128117675,6917.868,95.437,540.572,538.894,0.0
53004.0,STARLINK-4253,PAYLOAD,2024-08-19 20:41:22,15.08828141,0.0001518,53.2161,118.711,90.9879,269.1287,-5.6237e-05,-1.183e-05,0.0,0 STARLINK-4253,1 53004U 22076U   24232.86206307 -.00001183  00000-0 -56237-4 0  9996,2 53004  53.2161 118.7110 0001518  90.9879 269.1287 15.08828141117741,6917.917,95.438,540.832,538.731,0.0
53004.0,STARLINK-4253,PAYLOAD,2024-08-20 01:27:31,15.08831071,0.0001512,53.2155,117.8185,82.9893,277.1272,-3.8596e-05,-9.02e-06,0.0,0 STARLINK-4253,1 53004U 22076U   24233.06078152 -.00000902  00000-0 -38596-4 0  9990,2 53004  53.2155 117.8185 0001512  82.9893 277.1272 15.08831071117308,6917.908,95.438,540.819,538.727,0.0
53004.0,STARLINK-4253,PAYLOAD,2024-08-20 20:32:08,15.08848692,0.0001398,53.2153,114.2504,88.1483,271.9669,0.00024101,3.551e-05,0.0,0 STARLINK-4253,1 53004U 22076U   24233.85565595  .00003551  00000-0  24101-3 0  9996,2 53004  53.2153 114.2504 0001398  88.1483 271.9669 15.08848692117890,6917.854,95.437,540.686,538.752,0.0
53004.0,STARLINK-4253,PAYLOAD,2024-08-21 01:18:18,15.08860284,0.0001444,53.2146,113.3581,83.9379,276.1778,0.00096248,0.00015072,0.0,0 STARLINK-4253,1 53004U 22076U   24234.05437623  .00015072  00000-0  96248-3 0  9991,2 53004  53.2146 113.3581 0001444  83.9379 276.1778 15.08860284117929,6917.818,95.436,540.682,538.684,0.0
53004.0,STARLINK-4253,PAYLOAD,2024-08-21 20:22:55,15.0884801,0.0001469,53.2133,109.7886,105.5991,254.5163,0.00040033,6.09e-05,0.0,0 STARLINK-4253,1 53004U 22076U   24234.84925684  .00006090  00000-0  40033-3 0  9998,2 53004  53.2133 109.7886 0001469 105.5991 254.5163 15.08848010117572,6917.856,95.437,540.737,538.705,0.0
53004.0,STARLINK-4253,PAYLOAD,2024-08-21 21:58:18,15.08845658,0.0001745,53.2144,109.4893,137.181,222.9319,0.00029148,4.355e-05,0.0,0 STARLINK-4253,1 53004U 22076U   24234.91549456  .00004355  00000-0  29148-3 0  9991,2 53004  53.2144 109.4893 0001745 137.1810 222.9319 15.08845658118058,6917.863,95.437,540.935,538.521,0.0
